     3.04           NAVIGATION DATA     M (Mixed)           RINEX VERSION / TYPE
BCEmerge            congo               20200709 004605 GMT PGM / RUN BY / DATE 
Merged GPS/GLO/GAL/BDS/QZS/SBAS/IRNSS navigation file       COMMENT 
based on CONGO and IGS tracking data                        COMMENT 
DLR/GSOC: O. Montenbruck; P. Steigenberger                  COMMENT 
BDUT -0.0000000000e+00-0.000000000e+00     14 2113          TIME SYSTEM CORR    
GAGP  2.0954757929e-09 7.105427358e-15 259200 2113          TIME SYSTEM CORR    
GAUT -9.3132257462e-10 0.000000000e+00 172800 2113          TIME SYSTEM CORR    
GLUT  4.6566128731e-10 0.000000000e+00 259200 2113          TIME SYSTEM CORR    
QZUT  4.6566128731e-09 0.000000000e+00 442368 2113          TIME SYSTEM CORR    
    18                                                      LEAP SECONDS        
                                                            END OF HEADER            
C01 2020 07 08 13 00 00-3.456854028627e-04 3.530953307518e-11 0.000000000000e+00
     1.000000000000e+00-4.982968750000e+02 3.526575467452e-09 1.063731043662e+00
    -1.610815525055e-05 6.262548267841e-04 1.511909067631e-05 6.493344469070e+03
     3.060000000000e+05 9.499490261078e-08 3.154577722196e-01-9.313225746155e-08
     1.035522305318e-01-4.557812500000e+02-1.676943311717e+00-2.600465462682e-09
    -6.425267638188e-10 0.000000000000e+00 7.570000000000e+02 0.000000000000e+00
     2.000000000000e+00 0.000000000000e+00-5.000000000000e-09-1.020000000000e-08
     3.060000000000e+05 0.000000000000e+00                                      
C01 2020 07 08 14 00 00-3.455583937466e-04 3.530420400466e-11 0.000000000000e+00
     1.000000000000e+00-2.462031250000e+02 2.304381701033e-09 1.327739166146e+00
    -7.832888513803e-06 6.261450471357e-04 2.074101939797e-05 6.493342258453e+03
     3.096000000000e+05-4.656612873077e-10 5.370280046634e-01-8.847564458847e-08
     1.029129382570e-01-6.319531250000e+02-1.900179684968e+00-1.351842023932e-09
    -6.936003198088e-10 0.000000000000e+00 7.570000000000e+02 0.000000000000e+00
     2.000000000000e+00 0.000000000000e+00-5.000000000000e-09-1.020000000000e-08
     3.096000000000e+05 0.000000000000e+00                                      
C01 2020 07 08 14 00 00-3.454311517999e-04 3.532818482199e-11 0.000000000000e+00
     1.000000000000e+00 8.743750000000e+01 8.196769999800e-10 1.597134298666e+00
     2.967193722725e-06 6.267115240917e-04 2.300739288330e-05 6.493331853867e+03
     3.132000000000e+05-9.872019290924e-08 7.605717106703e-01-1.047737896442e-07
     1.013574203891e-01-7.076093750000e+02-2.130761797067e+00 2.214377952016e-10
    -6.975290548850e-10 0.000000000000e+00 7.570000000000e+02 0.000000000000e+00
     2.000000000000e+00 0.000000000000e+00-5.000000000000e-09-1.020000000000e-08
     3.131400000000e+05 0.000000000000e+00                                      
C01 2020 07 08 15 00 00-3.454311517999e-04 3.532818482199e-11 0.000000000000e+00
     1.000000000000e+00 8.743750000000e+01 8.196769999800e-10 1.597134298666e+00
     2.967193722725e-06 6.267115240917e-04 2.300739288330e-05 6.493331853867e+03
     3.132000000000e+05-9.872019290924e-08 7.605717106703e-01-1.047737896442e-07
     1.013574203891e-01-7.076093750000e+02-2.130761797067e+00 2.214377952016e-10
    -6.975290548850e-10 0.000000000000e+00 7.570000000000e+02 0.000000000000e+00
     2.000000000000e+00 0.000000000000e+00-5.000000000000e-09-1.020000000000e-08
     3.132000000000e+05 0.000000000000e+00                                      
C01 2020 07 08 16 00 00-3.453036770225e-04 3.536637649404e-11 0.000000000000e+00
     1.000000000000e+00 4.198437500000e+02-1.086830985159e-09 1.865285748936e+00
     1.367786899209e-05 6.281444802880e-04 2.022460103035e-05 6.493322713852e+03
     3.168000000000e+05-1.420266926289e-07 9.878381189427e-01-1.383014023304e-07
     9.895305893495e-02-6.260156250000e+02-2.363794791415e+00 2.205091850927e-09
    -6.521700226420e-10 0.000000000000e+00 7.570000000000e+02 0.000000000000e+00
     2.000000000000e+00 0.000000000000e+00-5.000000000000e-09-1.020000000000e-08
     3.168000000000e+05 0.000000000000e+00                                      
C01 2020 07 08 17 00 00-3.451764350757e-04 3.535394199616e-11 0.000000000000e+00
     1.000000000000e+00 6.597968750000e+02-3.150845531078e-09 2.128092989764e+00
     2.141110599041e-05 6.281101377681e-04 1.190928742290e-05 6.493322452545e+03
     3.204000000000e+05-1.438893377781e-07 1.220709122909e+00-1.238659024239e-07
     9.580843021140e-02-3.697500000000e+02-2.597049975224e+00 4.276249551530e-09
    -5.660950087008e-10 0.000000000000e+00 7.570000000000e+02 0.000000000000e+00
     2.000000000000e+00 0.000000000000e+00-5.000000000000e-09-1.020000000000e-08
     3.204000000000e+05 0.000000000000e+00                                      
C01 2020 07 08 18 00 00-3.450490767136e-04 3.536282378036e-11 0.000000000000e+00
     1.000000000000e+00 7.357343750000e+02-4.999851121011e-09 2.387569299251e+00
     2.388516440988e-05 6.253274623305e-04-2.556480467319e-07 6.493330583572e+03
     3.240000000000e+05-1.355074346066e-07 1.461227525283e+00-3.911554813385e-08
     9.207586641513e-02 8.156250000000e+00-2.834577642005e+00 6.068109903991e-09
    -4.468043254793e-10 0.000000000000e+00 7.570000000000e+02 0.000000000000e+00
     2.000000000000e+00 0.000000000000e+00-5.000000000000e-09-1.020000000000e-08
     3.240000000000e+05 0.000000000000e+00                                      
C01 2020 07 08 19 00 00-3.449212526903e-04 3.542766080500e-11 0.000000000000e+00
     1.000000000000e+00 6.165468750000e+02-6.463126358012e-09 2.647795115797e+00
     2.009887248278e-05 6.215786561370e-04-1.273723319173e-05 6.493340236664e+03
     3.276000000000e+05-1.066364347935e-07 1.711573564080e+00 6.705522537231e-08
     8.795428344323e-02 3.961562500000e+02-3.082635947566e+00 7.457453490014e-09
    -2.957266039144e-10 0.000000000000e+00 7.570000000000e+02 0.000000000000e+00
     2.000000000000e+00 0.000000000000e+00-5.000000000000e-09-1.020000000000e-08
     3.276000000000e+05 0.000000000000e+00                                      
C01 2020 07 08 20 00 00-3.447934286669e-04 3.546318794179e-11 0.000000000000e+00
     1.000000000000e+00 3.304687500000e+02-7.476740007661e-09 2.910147295476e+00
     1.088716089725e-05 6.208671256900e-04-2.125650644302e-05 6.493341968536e+03
     3.312000000000e+05-2.980232238770e-08 1.973937654838e+00 1.299194991589e-07
     8.369067160668e-02 6.577500000000e+02 2.938393262160e+00 8.454995041624e-09
    -1.167905790821e-10 0.000000000000e+00 7.570000000000e+02 0.000000000000e+00
     2.000000000000e+00 0.000000000000e+00-5.000000000000e-09-1.020000000000e-08
     3.312000000000e+05 0.000000000000e+00                                      
C01 2020 07 08 21 00 00-3.446658374742e-04 3.545785887127e-11 0.000000000000e+00
     1.000000000000e+00-4.332812500000e+01-7.931758961027e-09-3.111310046003e+00
    -1.239124685526e-06 6.239388603717e-04-2.295384183526e-05 6.493334493637e+03
     3.348000000000e+05 8.381903171539e-08 2.250208533052e+00 1.173466444016e-07
     7.957782664447e-02 7.062500000000e+02 2.663000023611e+00 8.955730184967e-09
     7.857470152314e-11 0.000000000000e+00 7.570000000000e+02 0.000000000000e+00
     2.000000000000e+00 0.000000000000e+00-5.000000000000e-09-1.020000000000e-08
     3.348000000000e+05 0.000000000000e+00                                      
C01 2020 07 08 22 00 00-3.445381298661e-04 3.545519433601e-11 0.000000000000e+00
     1.000000000000e+00-3.842812500000e+02-7.542814188487e-09-2.852377492926e+00
    -1.241313293576e-05 6.290789460763e-04-1.706322655082e-05 6.493321022034e+03
     3.384000000000e+05 1.774169504642e-07 2.541400597822e+00 4.563480615616e-08
     7.594350072306e-02 5.199375000000e+02 2.375522514116e+00 8.654646215040e-09
     2.721541934574e-10 0.000000000000e+00 7.570000000000e+02 0.000000000000e+00
     2.000000000000e+00 0.000000000000e+00-5.000000000000e-09-1.020000000000e-08
     3.384000000000e+05 0.000000000000e+00                                      
C01 2020 07 08 23 00 00-3.444112371653e-04 3.534772474723e-11 0.000000000000e+00
     1.000000000000e+00-5.717343750000e+02-5.968462896151e-09-2.594940071384e+00
    -1.868698745966e-05 6.331607000902e-04-5.665235221386e-06 6.493308572769e+03
     3.420000000000e+05 1.820735633373e-07 2.846847631865e+00-2.747401595116e-08
     7.312399676512e-02 1.666718750000e+02 2.075319723934e+00 7.161726886100e-09
     4.385896975928e-10 0.000000000000e+00 7.570000000000e+02 0.000000000000e+00
     2.000000000000e+00 0.000000000000e+00-5.000000000000e-09-1.020000000000e-08
     3.420000000000e+05 0.000000000000e+00                    